1 33901U 93036DE  18241.39346574  .00000779  00000-0  16564-3 0  9992
2 33901  73.7886 229.8425 0115930 130.4624 230.6717 14.56822860504690
1 33905U 93036DJ  18241.90872927 +.00000225 +00000-0 +10073-3 0  9994
2 33905 073.8897 155.8248 0065262 221.8166 211.8313 14.27343385496518
1 33906U 93036DK  18241.97275236 +.00000632 +00000-0 +23793-3 0  9997
2 33906 074.0393 188.2873 0054579 157.9649 270.2188 14.32701780497334
1 33907U 93036DL  18241.91156427 +.00000269 +00000-0 +14817-3 0  9995
2 33907 074.0550 069.4502 0159892 057.8289 065.6857 14.09729833489277
1 33908U 93036DM  18242.14899822 -.00000108  00000-0 -48260-4 0  9999
2 33908  73.8472 159.1601 0264285 302.1735  55.4004 13.91725009483412
1 33909U 93036DN  18241.85283601  .00008702  00000-0  90689-3 0  9996
2 33909  74.0561  31.9667 0029988 313.9867  45.8842 14.89580901502940
1 33911U 93036DQ  18241.74296404 +.00000563 +00000-0 +17299-3 0  9995
2 33911 074.1027 104.8302 0025142 052.7778 020.5477 14.43630234500491
1 33912U 93036DR  18241.64823003  .00000243  00000-0  85473-4 0  9991
2 33912  74.0385  91.6238 0014933 102.5700 312.6544 14.39922524500620
1 33913U 93036DS  18241.92277737 +.00000209 +00000-0 +73523-4 0  9995
2 33913 074.0353 079.9297 0054607 117.1399 354.1614 14.39985663500833
1 33915U 93036DU  18241.93563010 +.00000155 +00000-0 +67175-4 0  9996
2 33915 074.0456 195.0241 0117847 216.6424 199.1909 14.28706613496986
1 33917U 93036DW  18241.91514975 +.00000394 +00000-0 +34521-3 0  9995
2 33917 074.1037 136.2935 0351980 138.1080 224.7551 13.63330793474114
1 33918U 93036DX  18242.10713486  .00001556  00000-0  23896-3 0  9990
2 33918  74.0593 235.8062 0059015 248.4995 179.3890 14.73351627508099
1 33919U 93036DY  18241.70651802 +.00000898 +00000-0 +21123-3 0  9998
2 33919 074.0532 356.2721 0033194 021.8660 338.3911 14.55537450503518
1 33920U 93036DZ  18242.18104588  .00000763  00000-0  27177-3 0  9993
2 33920  74.0705 171.9918 0054632 139.8841 220.6366 14.35079673498294
1 33921U 93036EA  18241.95222505 +.00003317 +00000-0 +41462-3 0  9999
2 33921 073.9842 231.7922 0009152 289.7965 070.2225 14.82741160507174
1 33922U 93036EB  18241.94379142 +.00000190 +00000-0 +65017-4 0  9998
2 33922 074.0499 056.2949 0025559 109.6249 046.9189 14.42517979501480
1 33928U 93036EH  18241.77548191 +.00000120 +00000-0 +43279-4 0  9996
2 33928 073.9285 356.9766 0064379 151.9130 208.5525 14.42838009502207
1 33929U 93036EJ  18241.73282887  .00001788  00000-0  36831-3 0  9996
2 33929  74.0336 347.0862 0003929 233.8351 249.5869 14.61267172503973
1 33930U 93036EK  18241.97276801 +.00001334 +00000-0 +38445-3 0  9993
2 33930 074.0291 093.0733 0030084 044.5018 027.6173 14.45439089500429
1 33931U 93036EL  18241.88751545 +.00000667 +00000-0 +11667-3 0  9992
2 33931 074.0261 017.7560 0234695 050.8365 311.3392 14.53529030502475
1 33932U 93036EM  18241.86411110 +.00000226 +00000-0 +91487-4 0  9992
2 33932 074.0367 149.9375 0040782 156.6022 203.6997 14.32763734498322
1 33933U 93036EN  18241.91330032 +.00000144 +00000-0 +64834-4 0  9997
2 33933 074.0902 205.9144 0077376 177.2771 182.8816 14.29019628497288
1 33935U 93036EQ  18241.62227654 +.00000888 +00000-0 +18396-3 0  9998
2 33935 074.0073 283.4073 0044777 000.0336 000.0825 14.61235678505451
1 33936U 93036ER  18241.76692502 +.00000299 +00000-0 +88329-4 0  9992
2 33936 074.0239 006.1155 0034321 090.1193 270.3899 14.47496598502894
1 33938U 93036ET  18241.91617441 +.00000190 +00000-0 +69714-4 0  9997
2 33938 074.0477 091.3966 0018558 115.5795 357.0745 14.39213591500533
1 33939U 93036EU  18241.91361392 +.00000704 +00000-0 +21066-3 0  9997
2 33939 074.0253 079.7547 0023458 079.8886 280.4916 14.44526794500525
1 33940U 93036EV  18241.92584788 +.00000406 +00000-0 +12964-3 0  9992
2 33940 074.0457 072.4511 0017776 090.3475 338.8386 14.42748243501019
1 33941U 93036EW  18241.59630828 +.00013008 +00000-0 +44717-3 0  9996
2 33941 073.9721 293.8676 0028079 000.3591 359.7625 15.29738630516672
1 33944U 93036EZ  18241.88045285  .00000133  00000-0  53839-4 0  9999
2 33944  74.0420 141.2610 0120968 172.6507 261.4349 14.33080875498763
1 33945U 93036FA  18242.15185152  .00000054  00000-0  29408-4 0  9996
2 33945  74.0303 132.8152 0022921 145.8164 214.4469 14.32810323498952
1 33948U 93036FD  18241.76929517 +.00000081 +00000-0 +38879-4 0  9998
2 33948 074.0365 134.7736 0023858 142.4023 217.8802 14.33152783498700
1 33950U 97051BK  18241.71306905  .00001735  00000-0  34835-3 0  9991
2 33950  86.3820  77.2039 0019146  43.5472 316.7246 14.61028599503027
1 33952U 97051BM  18241.50699982  .00001393  00000-0  31130-3 0  9995
2 33952  86.3525  65.1525 0016575 120.2225 240.0626 14.56013437503018
1 33953U 97051BN  18241.79867093  .00000521  00000-0  16361-3 0  9998
2 33953  86.3913 103.3555 0020826 254.3973 235.9115 14.38601358499724
1 33954U 97051BP  18241.89374140  .00001486  00000-0  31815-3 0  9998
2 33954  86.3793  85.8854 0018936  32.3394  32.4201 14.58011090501873
1 33955U 97051BQ  18241.84943577  .00003599  00000-0  63046-3 0  9998
2 33955  86.3536  80.1712 0040119 106.7751 253.7870 14.67016458501829
1 33956U 97051BR  18242.10981256  .00004529  00000-0  67996-3 0  9997
2 33956  86.4127  89.7415 0032959 233.8895 245.0865 14.73989848503656
1 33959U 97051BU  18242.16532767  .00000741  00000-0  25561-3 0  9999
2 33959  86.3651 116.0744 0064391  59.2688 301.4828 14.33400295495661
1 33960U 97051BV  18242.16985319  .00001050  00000-0  28461-3 0  9992
2 33960  86.2744  39.6344 0008899  90.9584 322.0705 14.46787956501880
1 33961U 97051BW  18241.90556787 +.00001803 +00000-0 +33365-3 0  9992
2 33961 086.2724 028.5704 0022619 087.8269 272.5533 14.64658398503491
1 33962U 97051BX  18241.68256167 +.00002468 +00000-0 +48674-3 0  9994
2 33962 086.3525 061.9274 0020861 106.8038 253.5463 14.61978080503488
1 33965U 97051CA  18242.70368459  .00001143  00000-0  28351-3 0  9998
2 33965  86.3673  77.8353 0010806 114.7100 245.5231 14.51031062502207
1 33966U 97051CB  18242.58544954  .00000286  00000-0  83277-4 0  9997
2 33966  86.3924  94.5916 0009049  25.6239   2.8469 14.40623408500932
1 33971U 93036FE  18241.79105005  .00000111  00000-0  47352-4 0  9995
2 33971  74.0259 109.5867 0019455 137.4077 299.0994 14.35695800499107
1 33972U 93036FF  18241.24792188  .00000902  00000-0  39346-3 0  9991
2 33972  73.9992 313.3378 0155657   8.9964  44.7428 14.19047176492057
1 33973U 93036FG  18241.80042293  .00000046  00000-0  21424-4 0  9997
2 33973  74.0098  19.4184 0046881 115.7793   1.7775 14.43083776501941
1 33975U 93036FJ  18242.17169692  .00000123  00000-0  91515-4 0  9997
2 33975  73.8020  61.6431 0197767 287.0743  70.8809 13.96726193486577
1 33980U 93036FP  18241.86154560 +.00000336 +00000-0 +10017-3 0  9999
2 33980 074.0276 017.2900 0035411 091.6308 028.9427 14.46477580502264
1 33981U 93036FQ  18241.89040049 +.00001110 +00000-0 +13252-3 0  9994
2 33981 073.8353 010.9671 0073687 275.4817 083.7958 14.83819347512437
1 33982U 93036FR  18241.96354229 +.00000197 +00000-0 +54431-4 0  9990
2 33982 074.0757 335.7414 0089147 355.3276 123.0670 14.51221228504864
1 33983U 93036FS  18241.92788517 +.00000209 +00000-0 +70579-4 0  9993
2 33983 074.0525 058.1560 0024088 107.4812 006.4739 14.42668088501889
1 33984U 93036FT  18242.24250881  .00000329  00000-0  91811-4 0  9993
2 33984  74.0170 343.1529 0029630 106.2845 279.5761 14.49919461504005
1 33986U 93036FV  18241.89788451 +.00000224 +00000-0 +88762-4 0  9999
2 33986 074.0411 150.4411 0048629 157.8825 322.4756 14.33715275498131
1 33989U 93036FY  18242.43280352  .00000836  00000-0  16454-3 0  9997
2 33989  74.0206 256.0171 0039802   4.9596 355.1957 14.63763465506898
1 33992U 93036GB  18241.97311667 +.00000262 +00000-0 +71563-4 0  9999
2 33992 074.0302 336.7295 0070456 035.6873 080.7543 14.50937137504212
1 33993U 93036GC  18241.57909093 +.00001010 +00000-0 +20305-3 0  9991
2 33993 074.0203 296.7147 0030936 002.8810 357.2529 14.62704501505318
1 33994U 93036GD  18241.97351338 +.00000016 +00000-0 +13426-4 0  9991
2 33994 074.0427 066.6587 0023002 143.4376 328.4933 14.39623213501043
1 33995U 93036GE  18242.36899048  .00000284  00000-0  12893-3 0  9994
2 33995  74.0647 250.7023 0071979 207.6374 152.0940 14.25001524495586
1 33996U 93036GF  18242.70975109  .00002867  00000-0  63728-3 0  9998
2 33996  74.1046 139.9794 0069718  34.2785 326.2848 14.55965211499842
1 33999U 93036GJ  18241.91220607 +.00000476 +00000-0 +11836-3 0  9996
2 33999 073.9377 299.6757 0073271 073.7269 287.1936 14.53033421504135
1 34000U 93036GK  18241.77825172  .00000908  00000-0  20923-3 0  9999
2 34000  74.0441 353.2681 0025866  22.4299 102.1071 14.56628243503946
1 34001U 93036GL  18241.87142133 +.00000066 +00000-0 +32621-4 0  9994
2 34001 074.0395 121.1974 0020580 138.2948 347.3566 14.34556363499571
1 34003U 93036GN  18241.82236048 -.00000025 +00000-0 -29016-5 0  9992
2 34003 074.0808 034.2227 0306677 043.6891 318.8065 13.74551089477775
1 34004U 93036GP  18241.92734663 +.00000569 +00000-0 +21404-3 0  9992
2 34004 074.0404 169.1212 0041335 119.5278 307.6842 14.33258077497889
1 34005U 93036GQ  18241.95871535 +.00000032 +00000-0 +18933-4 0  9995
2 34005 074.0446 080.5907 0020382 142.0561 334.8462 14.38457636500925
1 34006U 93036GR  18241.82170323  .00000818  00000-0  25209-3 0  9994
2 34006  74.0704 112.9920 0028846  64.4887  60.8703 14.42733903500269
1 34007U 93036GS  18241.71651675 +.00000345 +00000-0 +93655-4 0  9993
2 34007 074.0260 341.1543 0058957 051.5014 309.1412 14.50346828503937
1 34008U 93036GT  18241.89959134  .00000053  00000-0  29356-4 0  9997
2 34008  74.0351 146.2314 0023124  67.2108   6.9225 14.31612913498651
1 34009U 93036GU  18241.91644037 +.00000060 +00000-0 +32394-4 0  9998
2 34009 074.0382 150.6649 0028036 149.8846 295.2935 14.31392932498465
1 34010U 93036GV  18241.74068293 +.00000778 +00000-0 +19710-3 0  9997
2 34010 074.0257 355.0870 0028265 059.8293 056.5425 14.52360149503495
1 34011U 93036GW  18241.87625645  .00000257  00000-0  10517-3 0  9990
2 34011  74.0204 167.2483 0045713 167.6743 192.5538 14.31503794497766
